{"type": "FeatureCollection", "features": [ {"type": "Feature", "properties": {"norad_id": 43010, "name": "FENGYUN 3D", "group": "weather", "lat": -77.83583512995257, "lon": -1.0016211914202908, "alt_km": 833.7456408149719, "timestamp": "2025-12-11T10:53:15.526317+00:00", "meta": {"OBJECT_NAME": "FENGYUN 3D", "OBJECT_ID": "2017-072A", "EPOCH": "2025-12-11T04:30:23.518080", "MEAN_MOTION": 14.1968333, "ECCENTRICITY": 8.6e-05, "INCLINATION": 98.9894, "RA_OF_ASC_NODE": 311.4746, "ARG_OF_PERICENTER": 187.421, "MEAN_ANOMALY": 172.6953, "EPHEMERIS_TYPE": 0, "CLASSIFICATION_TYPE": "U", "NORAD_CAT_ID": 43010, "ELEMENT_SET_NO": 999, "REV_AT_EPOCH": 41831, "BSTAR": 0.00019586, "MEAN_MOTION_DOT": 3.68e-06, "MEAN_MOTION_DDOT": 0}, "tle": {"line1": "1 43010U 17072A   25345.18777220  .00000368  00000+0  19586-3 0  9996", "line2": "2 43010  98.9894 311.4746 0000860 187.4210 172.6953 14.19683330418318"}}, "geometry": {"type": "Point", "coordinates": [-1.0016211914202908, -77.83583512995257]}}, {"type": "Feature", "properties": {"norad_id": 43013, "name": "NOAA 20 (JPSS-1)", "group": "weather", "lat": 69.40173479482499, "lon": -102.45573390033985, "alt_km": 818.7139945798053, "timestamp": "2025-12-11T10:53:15.526328+00:00", "meta": {"OBJECT_NAME": "NOAA 20 (JPSS-1)", "OBJECT_ID": "2017-073A", "EPOCH": "2025-12-11T03:47:11.448096", "MEAN_MOTION": 14.19525028, "ECCENTRICITY": 0.0002152, "INCLINATION": 98.7597, "RA_OF_ASC_NODE": 281.4718, "ARG_OF_PERICENTER": 89.4897, "MEAN_ANOMALY": 270.6526, "EPHEMERIS_TYPE": 0, "CLASSIFICATION_TYPE": "U", "NORAD_CAT_ID": 43013, "ELEMENT_SET_NO": 999, "REV_AT_EPOCH": 41779, "BSTAR": 0.00010104, "MEAN_MOTION_DOT": 1.69e-06, "MEAN_MOTION_DDOT": 0}, "tle": {"line1": "1 43013U 17073A   25345.15777139  .00000169  00000+0  10104-3 0  9992", "line2": "2 43013  98.7597 281.4718 0002152  89.4897 270.6526 14.19525028417797"}}, "geometry": {"type": "Point", "coordinates": [-102.45573390033985, 69.40173479482499]}}, {"type": "Feature", "properties": {"norad_id": 43226, "name": "GOES 17", "group": "weather", "lat": 0.41568206009618497, "lon": 154.19747281463717, "alt_km": 35793.63279629933, "timestamp": "2025-12-11T10:53:15.526342+00:00", "meta": {"OBJECT_NAME": "GOES 17", "OBJECT_ID": "2018-022A", "EPOCH": "2025-12-11T02:48:46.255392", "MEAN_MOTION": 1.0027164, "ECCENTRICITY": 0.0003337, "INCLINATION": 0.456, "RA_OF_ASC_NODE": 89.1253, "ARG_OF_PERICENTER": 187.5221, "MEAN_ANOMALY": 116.1333, "EPHEMERIS_TYPE": 0, "CLASSIFICATION_TYPE": "U", "NORAD_CAT_ID": 43226, "ELEMENT_SET_NO": 999, "REV_AT_EPOCH": 2853, "BSTAR": 0, "MEAN_MOTION_DOT": -1.77e-06, "MEAN_MOTION_DDOT": 0}, "tle": {"line1": "1 43226U 18022A   25345.11720203 -.00000177  00000+0  00000+0 0  9999", "line2": "2 43226   0.4560  89.1253 0003337 187.5221 116.1333  1.00271640 28531"}}, "geometry": {"type": "Point", "coordinates": [154.19747281463717, 0.41568206009618497]}}, {"type": "Feature", "properties": {"norad_id": 43491, "name": "FENGYUN 2H", "group": "weather", "lat": -2.2514382034913756, "lon": -36.90283324880444, "alt_km": 35783.63132951035, "timestamp": "2025-12-11T10:53:15.526355+00:00", "meta": {"OBJECT_NAME": "FENGYUN 2H", "OBJECT_ID": "2018-050A", "EPOCH": "2025-12-11T01:54:12.536928", "MEAN_MOTION": 1.00271109, "ECCENTRICITY": 0.0002916, "INCLINATION": 2.5468, "RA_OF_ASC_NODE": 81.3429, "ARG_OF_PERICENTER": 165.4782, "MEAN_ANOMALY": 301.137, "EPHEMERIS_TYPE": 0, "CLASSIFICATION_TYPE": "U", "NORAD_CAT_ID": 43491, "ELEMENT_SET_NO": 999, "REV_AT_EPOCH": 2755, "BSTAR": 0, "MEAN_MOTION_DOT": -1.24e-06, "MEAN_MOTION_DDOT": 0}, "tle": {"line1": "1 43491U 18050A   25345.07931177 -.00000124  00000+0  00000+0 0  9995", "line2": "2 43491   2.5468  81.3429 0002916 165.4782 301.1370  1.00271109 27551"}}, "geometry": {"type": "Point", "coordinates": [-36.90283324880444, -2.2514382034913756]}}, {"type": "Feature", "properties": {"norad_id": 43689, "name": "METOP-C", "group": "weather", "lat": -23.119828150599343, "lon": -140.50215457948477, "alt_km": 826.6165833873101, "timestamp": "2025-12-11T10:53:15.526367+00:00", "meta": {"OBJECT_NAME": "METOP-C", "OBJECT_ID": "2018-087A", "EPOCH": "2025-12-11T03:10:37.106688", "MEAN_MOTION": 14.21483137, "ECCENTRICITY": 0.0001295, "INCLINATION": 98.6931, "RA_OF_ASC_NODE": 42.9268, "ARG_OF_PERICENTER": 41.2493, "MEAN_ANOMALY": 318.8782, "EPHEMERIS_TYPE": 0, "CLASSIFICATION_TYPE": "U", "NORAD_CAT_ID": 43689, "ELEMENT_SET_NO": 999, "REV_AT_EPOCH": 36811, "BSTAR": 0.00011219, "MEAN_MOTION_DOT": 2.02e-06, "MEAN_MOTION_DDOT": 0}, "tle": {"line1": "1 43689U 18087A   25345.13237392  .00000202  00000+0  11219-3 0  9993", "line2": "2 43689  98.6931  42.9268 0001295  41.2493 318.8782 14.21483137368119"}}, "geometry": {"type": "Point", "coordinates": [-140.50215457948477, -23.119828150599343]}}, {"type": "Feature", "properties": {"norad_id": 43823, "name": "GEO-KOMPSAT-2A", "group": "weather", "lat": -0.0247335297786664, "lon": 11.97682667416517, "alt_km": 35787.0226705496, "timestamp": "2025-12-11T10:53:15.526379+00:00", "meta": {"OBJECT_NAME": "GEO-KOMPSAT-2A", "OBJECT_ID": "2018-100A", "EPOCH": "2025-12-10T22:42:45.873792", "MEAN_MOTION": 1.00269356, "ECCENTRICITY": 6.2e-06, "INCLINATION": 0.0425, "RA_OF_ASC_NODE": 144.1976, "ARG_OF_PERICENTER": 1.8887, "MEAN_ANOMALY": 42.7761, "EPHEMERIS_TYPE": 0, "CLASSIFICATION_TYPE": "U", "NORAD_CAT_ID": 43823, "ELEMENT_SET_NO": 999, "REV_AT_EPOCH": 2574, "BSTAR": 0, "MEAN_MOTION_DOT": -3.39e-06, "MEAN_MOTION_DDOT": 0}, "tle": {"line1": "1 43823U 18100A   25344.94636428 -.00000339  00000+0  00000+0 0  9994", "line2": "2 43823   0.0425 144.1976 0000062   1.8887  42.7761  1.00269356 25742"}}, "geometry": {"type": "Point", "coordinates": [11.97682667416517, -0.0247335297786664]}}, {"type": "Feature", "properties": {"norad_id": 44387, "name": "METEOR-M2 2", "group": "weather", "lat": -79.4863625521579, "lon": 87.59262161499836, "alt_km": 818.5528008866504, "timestamp": "2025-12-11T10:53:15.526390+00:00", "meta": {"OBJECT_NAME": "METEOR-M2 2", "OBJECT_ID": "2019-038A", "EPOCH": "2025-12-11T04:35:31.751808", "MEAN_MOTION": 14.24290766, "ECCENTRICITY": 0.0001197, "INCLINATION": 98.8974, "RA_OF_ASC_NODE": 324.901, "ARG_OF_PERICENTER": 150.5142, "MEAN_ANOMALY": 209.6104, "EPHEMERIS_TYPE": 0, "CLASSIFICATION_TYPE": "U", "NORAD_CAT_ID": 44387, "ELEMENT_SET_NO": 999, "REV_AT_EPOCH": 33453, "BSTAR": 0.00016369, "MEAN_MOTION_DOT": 3.32e-06, "MEAN_MOTION_DDOT": 0}, "tle": {"line1": "1 44387U 19038A   25345.19133972  .00000332  00000+0  16369-3 0  9996", "line2": "2 44387  98.8974 324.9010 0001197 150.5142 209.6104 14.24290766334539"}}, "geometry": {"type": "Point", "coordinates": [87.59262161499836, -79.4863625521579]}}, {"type": "Feature", "properties": {"norad_id": 47719, "name": "ARKTIKA-M 1", "group": "weather", "lat": 51.306666415610614, "lon": -134.9190832600635, "alt_km": 27654.060681566985, "timestamp": "2025-12-11T10:53:15.526403+00:00", "meta": {"OBJECT_NAME": "ARKTIKA-M 1", "OBJECT_ID": "2021-016A", "EPOCH": "2025-12-09T14:03:23.859648", "MEAN_MOTION": 2.00631311, "ECCENTRICITY": 0.7202538, "INCLINATION": 63.1769, "RA_OF_ASC_NODE": 84.4506, "ARG_OF_PERICENTER": 269.1116, "MEAN_ANOMALY": 15.6235, "EPHEMERIS_TYPE": 0, "CLASSIFICATION_TYPE": "U", "NORAD_CAT_ID": 47719, "ELEMENT_SET_NO": 999, "REV_AT_EPOCH": 3498, "BSTAR": 0, "MEAN_MOTION_DOT": -6.1e-07, "MEAN_MOTION_DDOT": 0}, "tle": {"line1": "1 47719U 21016A   25343.58569282 -.00000061  00000+0  00000+0 0  9996", "line2": "2 47719  63.1769  84.4506 7202538 269.1116  15.6235  2.00631311 34985"}}, "geometry": {"type": "Point", "coordinates": [-134.9190832600635, 51.306666415610614]}}, {"type": "Feature", "properties": {"norad_id": 49008, "name": "FENGYUN 3E", "group": "weather", "lat": -62.772595319037755, "lon": 148.5775553516619, "alt_km": 832.5648659763247, "timestamp": "2025-12-11T10:53:15.526446+00:00", "meta": {"OBJECT_NAME": "FENGYUN 3E", "OBJECT_ID": "2021-062A", "EPOCH": "2025-12-11T04:40:04.387008", "MEAN_MOTION": 14.19880279, "ECCENTRICITY": 5.75e-05, "INCLINATION": 98.7477, "RA_OF_ASC_NODE": 345.7337, "ARG_OF_PERICENTER": 277.801, "MEAN_ANOMALY": 82.3101, "EPHEMERIS_TYPE": 0, "CLASSIFICATION_TYPE": "U", "NORAD_CAT_ID": 49008, "ELEMENT_SET_NO": 999, "REV_AT_EPOCH": 22990, "BSTAR": 0.00013314, "MEAN_MOTION_DOT": 2.39e-06, "MEAN_MOTION_DDOT": 0}, "tle": {"line1": "1 49008U 21062A   25345.19449522  .00000239  00000+0  13314-3 0  9995", "line2": "2 49008  98.7477 345.7337 0000575 277.8010  82.3101 14.19880279229905"}}, "geometry": {"type": "Point", "coordinates": [148.5775553516619, -62.772595319037755]}}, {"type": "Feature", "properties": {"norad_id": 51850, "name": "GOES 18", "group": "weather", "lat": 0.0008312741355959424, "lon": 106.72654810999919, "alt_km": 35788.76865848272, "timestamp": "2025-12-11T10:53:15.526462+00:00", "meta": {"OBJECT_NAME": "GOES 18", "OBJECT_ID": "2022-021A", "EPOCH": "2025-12-11T04:43:38.646048", "MEAN_MOTION": 1.00271937, "ECCENTRICITY": 7e-05, "INCLINATION": 0.0195, "RA_OF_ASC_NODE": 157.0095, "ARG_OF_PERICENTER": 150.9748, "MEAN_ANOMALY": 66.0866, "EPHEMERIS_TYPE": 0, "CLASSIFICATION_TYPE": "U", "NORAD_CAT_ID": 51850, "ELEMENT_SET_NO": 999, "REV_AT_EPOCH": 470, "BSTAR": 0, "MEAN_MOTION_DOT": 1.03e-06, "MEAN_MOTION_DDOT": 0}, "tle": {"line1": "1 51850U 22021A   25345.19697507  .00000103  00000+0  00000+0 0  9991", "line2": "2 51850   0.0195 157.0095 0000700 150.9748  66.0866  1.00271937  4707"}}, "geometry": {"type": "Point", "coordinates": [106.72654810999919, 0.0008312741355959424]}}]}